[
    {
        "Altitude(m)": 558590.4887768538,
        "Argument of Periapsis(deg)": 0.026491964442854003,
        "Eccentricity": 0.0,
        "Inclination(deg)": 53.0,
        "Latitude(deg)": 47.40866291252452,
        "Longitude(deg)": 47.204337439345004,
        "Mean Anomaly(deg)": 113.09367147031034,
        "RAAN(deg)": 24.960573474112067,
        "Satellite Name": "Starlink Shell 1 114",
        "Satellite Number": 114,
        "Semi-Major Axis(m)": 6931778.249405717,
        "Time(s)": 760
    },
    {
        "Altitude(m)": 558523.6764672274,
        "Argument of Periapsis(deg)": 0.02684054292236524,
        "Eccentricity": 0.0,
        "Inclination(deg)": 53.0,
        "Latitude(deg)": 47.11546675090366,
        "Longitude(deg)": 47.97773437336234,
        "Mean Anomaly(deg)": 113.72050267386707,
        "RAAN(deg)": 24.960054704034597,
        "Satellite Name": "Starlink Shell 1 114",
        "Satellite Number": 114,
        "Semi-Major Axis(m)": 6931778.249405717,
        "Time(s)": 770
    },
    {
        "Altitude(m)": 558455.6335864795,
        "Argument of Periapsis(deg)": 0.027189121401876473,
        "Eccentricity": 0.0,
        "Inclination(deg)": 53.0,
        "Latitude(deg)": 46.816526310345445,
        "Longitude(deg)": 48.742151983680905,
        "Mean Anomaly(deg)": 114.34733387742378,
        "RAAN(deg)": 24.95953593395712,
        "Satellite Name": "Starlink Shell 1 114",
        "Satellite Number": 114,
        "Semi-Major Axis(m)": 6931778.249405717,
        "Time(s)": 780
    },
    {
        "Altitude(m)": 558386.4022167118,
        "Argument of Periapsis(deg)": 0.02753769988138771,
        "Eccentricity": 0.0,
        "Inclination(deg)": 53.0,
        "Latitude(deg)": 46.51196282818603,
        "Longitude(deg)": 49.497614056582215,
        "Mean Anomaly(deg)": 114.97416508098051,
        "RAAN(deg)": 24.95901716387965,
        "Satellite Name": "Starlink Shell 1 114",
        "Satellite Number": 114,
        "Semi-Major Axis(m)": 6931778.249405717,
        "Time(s)": 790
    },
    {
        "Altitude(m)": 558316.0252480152,
        "Argument of Periapsis(deg)": 0.02788627836089895,
        "Eccentricity": 0.0,
        "Inclination(deg)": 53.0,
        "Latitude(deg)": 46.20189647654914,
        "Longitude(deg)": 50.24415298851611,
        "Mean Anomaly(deg)": 115.60099628453722,
        "RAAN(deg)": 24.95849839380218,
        "Satellite Name": "Starlink Shell 1 114",
        "Satellite Number": 114,
        "Semi-Major Axis(m)": 6931778.249405717,
        "Time(s)": 800
    },
    {
        "Altitude(m)": 558244.5463571624,
        "Argument of Periapsis(deg)": 0.02823485684041019,
        "Eccentricity": 0.0,
        "Inclination(deg)": 53.0,
        "Latitude(deg)": 45.88644625044169,
        "Longitude(deg)": 50.981809741486124,
        "Mean Anomaly(deg)": 116.22782748809391,
        "RAAN(deg)": 24.957979623724704,
        "Satellite Name": "Starlink Shell 1 114",
        "Satellite Number": 114,
        "Semi-Major Axis(m)": 6931778.249405717,
        "Time(s)": 810
    },
    {
        "Altitude(m)": 558172.0099858966,
        "Argument of Periapsis(deg)": 0.028583435319921423,
        "Eccentricity": 0.0,
        "Inclination(deg)": 53.0,
        "Latitude(deg)": 45.565729865965935,
        "Longitude(deg)": 51.710633806875535,
        "Mean Anomaly(deg)": 116.85465869165063,
        "RAAN(deg)": 24.957460853647227,
        "Satellite Name": "Starlink Shell 1 114",
        "Satellite Number": 114,
        "Semi-Major Axis(m)": 6931778.249405717,
        "Time(s)": 820
    },
    {
        "Altitude(m)": 558098.4613188389,
        "Argument of Periapsis(deg)": 0.028932013799432665,
        "Eccentricity": 0.0,
        "Inclination(deg)": 53.0,
        "Latitude(deg)": 45.23986366830134,
        "Longitude(deg)": 52.430681666899936,
        "Mean Anomaly(deg)": 117.48148989520733,
        "RAAN(deg)": 24.956942083569757,
        "Satellite Name": "Starlink Shell 1 114",
        "Satellite Number": 114,
        "Semi-Major Axis(m)": 6931778.249405717,
        "Time(s)": 830
    },
    {
        "Altitude(m)": 558023.9462609536,
        "Argument of Periapsis(deg)": 0.029280592278943897,
        "Eccentricity": 0.0,
        "Inclination(deg)": 53.0,
        "Latitude(deg)": 44.90896254908957,
        "Longitude(deg)": 53.1420167812272,
        "Mean Anomaly(deg)": 118.10832109876407,
        "RAAN(deg)": 24.956423313492287,
        "Satellite Name": "Starlink Shell 1 114",
        "Satellite Number": 114,
        "Semi-Major Axis(m)": 6931778.249405717,
        "Time(s)": 840
    },
    {
        "Altitude(m)": 557948.5114147045,
        "Argument of Periapsis(deg)": 0.029629170758455132,
        "Eccentricity": 0.0,
        "Inclination(deg)": 53.0,
        "Latitude(deg)": 44.57313987282811,
        "Longitude(deg)": 53.84470958742358,
        "Mean Anomaly(deg)": 118.7351523023208,
        "RAAN(deg)": 24.95590454341481,
        "Satellite Name": "Starlink Shell 1 114",
        "Satellite Number": 114,
        "Semi-Major Axis(m)": 6931778.249405717,
        "Time(s)": 850
    },
    {
        "Altitude(m)": 557872.2040567654,
        "Argument of Periapsis(deg)": 0.02997774923796637,
        "Eccentricity": 0.0,
        "Inclination(deg)": 53.0,
        "Latitude(deg)": 44.23250741186322,
        "Longitude(deg)": 54.538835835544134,
        "Mean Anomaly(deg)": 119.36198350587748,
        "RAAN(deg)": 24.95538577333734,
        "Satellite Name": "Starlink Shell 1 114",
        "Satellite Number": 114,
        "Semi-Major Axis(m)": 6931778.249405717,
        "Time(s)": 860
    },
    {
        "Altitude(m)": 557795.0721144199,
        "Argument of Periapsis(deg)": 0.030326327717477602,
        "Eccentricity": 0.0,
        "Inclination(deg)": 53.0,
        "Latitude(deg)": 43.88717528956861,
        "Longitude(deg)": 55.22447746036385,
        "Mean Anomaly(deg)": 119.98881470943421,
        "RAAN(deg)": 24.954867003259864,
        "Satellite Name": "Starlink Shell 1 114",
        "Satellite Number": 114,
        "Semi-Major Axis(m)": 6931778.249405717,
        "Time(s)": 870
    },
    {
        "Altitude(m)": 557717.164141585,
        "Argument of Periapsis(deg)": 0.030674906196988847,
        "Eccentricity": 0.0,
        "Inclination(deg)": 53.0,
        "Latitude(deg)": 43.53725193127875,
        "Longitude(deg)": 55.9017209491833,
        "Mean Anomaly(deg)": 120.61564591299091,
        "RAAN(deg)": 24.954348233182394,
        "Satellite Name": "Starlink Shell 1 114",
        "Satellite Number": 114,
        "Semi-Major Axis(m)": 6931778.249405717,
        "Time(s)": 880
    },
    {
        "Altitude(m)": 557638.5292944979,
        "Argument of Periapsis(deg)": 0.031023484676500086,
        "Eccentricity": 0.0,
        "Inclination(deg)": 53.0,
        "Latitude(deg)": 43.182844022553596,
        "Longitude(deg)": 56.57065740829973,
        "Mean Anomaly(deg)": 121.24247711654765,
        "RAAN(deg)": 24.953829463104924,
        "Satellite Name": "Starlink Shell 1 114",
        "Satellite Number": 114,
        "Semi-Major Axis(m)": 6931778.249405717,
        "Time(s)": 890
    },
    {
        "Altitude(m)": 557559.2173070925,
        "Argument of Periapsis(deg)": 0.03137206315601132,
        "Eccentricity": 0.0,
        "Inclination(deg)": 53.0,
        "Latitude(deg)": 42.824056474345745,
        "Longitude(deg)": 57.23138264764927,
        "Mean Anomaly(deg)": 121.86930832010438,
        "RAAN(deg)": 24.953310693027447,
        "Satellite Name": "Starlink Shell 1 114",
        "Satellite Number": 114,
        "Semi-Major Axis(m)": 6931778.249405717,
        "Time(s)": 900
    },
    {
        "Altitude(m)": 557479.2784660156,
        "Argument of Periapsis(deg)": 0.03172064163552255,
        "Eccentricity": 0.0,
        "Inclination(deg)": 53.0,
        "Latitude(deg)": 42.460992394644606,
        "Longitude(deg)": 57.883995771062416,
        "Mean Anomaly(deg)": 122.49613952366106,
        "RAAN(deg)": 24.952791922949974,
        "Satellite Name": "Starlink Shell 1 114",
        "Satellite Number": 114,
        "Semi-Major Axis(m)": 6931778.249405717,
        "Time(s)": 910
    },
    {
        "Altitude(m)": 557398.763585383,
        "Argument of Periapsis(deg)": 0.0320692201150338,
        "Eccentricity": 0.0,
        "Inclination(deg)": 53.0,
        "Latitude(deg)": 42.09375306618386,
        "Longitude(deg)": 58.5285992980547,
        "Mean Anomaly(deg)": 123.12297072721779,
        "RAAN(deg)": 24.952273152872504,
        "Satellite Name": "Starlink Shell 1 114",
        "Satellite Number": 114,
        "Semi-Major Axis(m)": 6931778.249405717,
        "Time(s)": 920
    },
    {
        "Altitude(m)": 557317.7239812147,
        "Argument of Periapsis(deg)": 0.032417798594545036,
        "Eccentricity": 0.0,
        "Inclination(deg)": 53.0,
        "Latitude(deg)": 41.722437929801636,
        "Longitude(deg)": 59.16529930431623,
        "Mean Anomaly(deg)": 123.7498019307745,
        "RAAN(deg)": 24.95175438279503,
        "Satellite Name": "Starlink Shell 1 114",
        "Satellite Number": 114,
        "Semi-Major Axis(m)": 6931778.249405717,
        "Time(s)": 930
    },
    {
        "Altitude(m)": 557236.2114455779,
        "Argument of Periapsis(deg)": 0.03276637707405627,
        "Eccentricity": 0.0,
        "Inclination(deg)": 53.0,
        "Latitude(deg)": 41.34714457305389,
        "Longitude(deg)": 59.79420406794872,
        "Mean Anomaly(deg)": 124.3766331343312,
        "RAAN(deg)": 24.951235612717557,
        "Satellite Name": "Starlink Shell 1 114",
        "Satellite Number": 114,
        "Semi-Major Axis(m)": 6931778.249405717,
        "Time(s)": 940
    }
]